{
"type": "FeatureCollection",
"name": "Batas_Desa_Ulaweng",
"crs": { "type": "name", "properties": { "name": "urn:ogc:def:crs:OGC:1.3:CRS84" } },
"features": [
{"type":"Feature","properties":{"OBJECTID":91620.0,"NAMOBJ":"Ulaweng","FCODE":"BA03070040","REMARK":"Batas Indikatif | Verifikasi Teknis 2024 (Surat Keterangan Nomor 23.10/PBWNR/IGD.04.05/12/2024) | BA Monev Nomor 21.32/PBWNR/IGD.04.05/11/2024","METADATA":"TASWIL1000020260612DESAKEL_AR","SRS_ID":"4326","KDBBPS":null,"KDCBPS":null,"KDCPUM":"74.01.20","KDEBPS":null,"KDEPUM":"74.01.20.2016","KDPBPS":null,"KDPKAB":"74.01","KDPPUM":"74","LUASWH":1.9138758940231011,"TIPADM":1.0,"WADMKC":"Samaturu","WADMKD":"Ulaweng","WADMKK":"Kolaka","WADMPR":"Sulawesi Tenggara","WIADKC":null,"WIADKK":null,"WIADPR":null,"WIADKD":null,"UUPP":null,"Status":"Batas Indikatif","LastSync":"LapakGIS.com"},"geometry":{"type":"MultiPolygon","coordinates":[[[[121.346374827000091,-3.947222994999947,0.0],[121.346355268000025,-3.947268442999928,0.0],[121.346352412000101,-3.947296995999977,0.0],[121.346349557000053,-3.94734125399998,0.0],[121.346342418000063,-3.947416920999956,0.0],[121.346333852000043,-3.947469744999978,0.0],[121.346311010000022,-3.947596807999957,0.0],[121.346263896000096,-3.947778122999978,0.0],[121.346201079000025,-3.947933739999939,0.0],[121.346122556000068,-3.94814218199997,0.0],[121.346085438000046,-3.948227840999948,0.0],[121.346041179000053,-3.948409155999968,0.0],[121.34601405300009,-3.948574766999968,0.0],[121.345966940000039,-3.94876893199995,0.0],[121.345668555000088,-3.948664710999935,0.0],[121.345600027000046,-3.948639011999944,0.0],[121.345461542000066,-3.948567627999978,0.0],[121.345417285000053,-3.948633301999962,0.0],[121.345344474000058,-3.948810334999962,0.0],[121.345258812000111,-3.948971660999973,0.0],[121.345105262000061,-3.949222078999981,0.0],[121.345010084000023,-3.949159023999925,0.0],[121.344924423000066,-3.949100727999962,0.0],[121.34491252700002,-3.94911738299993,0.0],[121.344848281000054,-3.949211371999979,0.0],[121.344784035000089,-3.949311308999938,0.0],[121.344706703000043,-3.949413625999966,0.0],[121.344745964000026,-3.949451696999972,0.0],[121.344728118000035,-3.949479061999966,0.0],[121.344632939,-3.949564721999934,0.0],[121.344536571000049,-3.949645622999981,0.0],[121.344431875000055,-3.949727714999938,0.0],[121.344402133000017,-3.949766975999978,0.0],[121.344366440000044,-3.949828841999931,0.0],[121.344339077000086,-3.94981813499993,0.0],[121.344283159000042,-3.949813374999962,0.0],[121.344221293000032,-3.949822892999975,0.0],[121.344159427000022,-3.94985739599997,0.0],[121.343978588000027,-3.95000016299997,0.0],[121.343919101000097,-3.950052511999957,0.0],[121.343898876000026,-3.950114377999967,0.0],[121.343746591000013,-3.950210744999936,0.0],[121.343681155000013,-3.950207175999935,0.0],[121.343563373000052,-3.950179811999931,0.0],[121.343483660000061,-3.950160776999951,0.0],[121.343438451000111,-3.950195278999956,0.0],[121.343378963000077,-3.950285698999949,0.0],[121.343294810000089,-3.950408081999967,0.0],[121.343277678000049,-3.950456623999969,0.0],[121.343260547000114,-3.950512302999925,0.0],[121.343244841000114,-3.950535144999947,0.0],[121.343231992000028,-3.950550849999956,0.0],[121.343190589000073,-3.950587969999958,0.0],[121.34313062700005,-3.950640792999934,0.0],[121.343110640000077,-3.950683623999964,0.0],[121.343117778000078,-3.950697899999966,0.0],[121.34314775900009,-3.950762145999931,0.0],[121.34314775900009,-3.950867794999965,0.0],[121.343086370000037,-3.950984862999974,0.0],[121.343056388000036,-3.951027693999947,0.0],[121.343072092000057,-3.951069095999969,0.0],[121.343109212000059,-3.951140480999925,0.0],[121.343106356000021,-3.951174743999957,0.0],[121.343070666000017,-3.951199014999929,0.0],[121.343037829000082,-3.951240417999941,0.0],[121.343029263000062,-3.951261832999933,0.0],[121.343049249000046,-3.951326077999965,0.0],[121.34307637500001,-3.951358914999958,0.0],[121.343074948000094,-3.95141887799997,0.0],[121.343036401000063,-3.951520241999958,0.0],[121.342982149000022,-3.951614468999935,0.0],[121.342906483000093,-3.951673003999929,0.0],[121.3428622240001,-3.951717262999978,0.0],[121.342839382000079,-3.951770085999954,0.0],[121.342800834000059,-3.951844324999968,0.0],[121.342755148000037,-3.95188144399998,0.0],[121.342693758000109,-3.95188144399998,0.0],[121.342636651000021,-3.95188144399998,0.0],[121.342590965000113,-3.951874305999979,0.0],[121.342566695000073,-3.95190428799998,0.0],[121.342513871000051,-3.951955684999973,0.0],[121.342461048000018,-3.952002796999977,0.0],[121.342403941000043,-3.952034205999951,0.0],[121.34233826600007,-3.952074180999944,0.0],[121.342289725000114,-3.952155557999959,0.0],[121.342225480000025,-3.952236935999963,0.0],[121.342161235000049,-3.952294042999938,0.0],[121.342111266000074,-3.95234258499994,0.0],[121.342002762000106,-3.952442520999966,0.0],[121.341924240000026,-3.952473930999929,0.0],[121.341881410000042,-3.952495344999932,0.0],[121.34185142900003,-3.952541030999953,0.0],[121.341872844000022,-3.952628118999939,0.0],[121.341911391000053,-3.952746615999956,0.0],[121.342141247000086,-3.953022157999953,0.0],[121.34214410200002,-3.953064988999927,0.0],[121.342084140000111,-3.953134943999942,0.0],[121.342078429000026,-3.953172064999933,0.0],[121.342129826000019,-3.953202044999955,0.0],[121.342282587000113,-3.953300554999942,0.0],[121.342494343000112,-3.953457471999968,0.0],[121.342481018000058,-3.953495543999964,0.0],[121.34243914000001,-3.953583108999965,0.0],[121.342359190000025,-3.953822957999932,0.0],[121.342305890000034,-3.953982856999971,0.0],[121.342273529000067,-3.954078035999942,0.0],[121.342176447000043,-3.954255068999942,0.0],[121.342151701000034,-3.954401643999972,0.0],[121.342139090000046,-3.954606514999966,0.0],[121.341918990000067,-3.954695744999981,0.0],[121.341817862000084,-3.954648154999973,0.0],[121.341621557000053,-3.954600565999954,0.0],[121.341514481000104,-3.95464220599996,0.0],[121.341395508000119,-3.954808768999953,0.0],[121.341258689000028,-3.955040766999957,0.0],[121.341050486000086,-3.955058611999959,0.0],[121.340901771000063,-3.954957484999966,0.0],[121.340532954000082,-3.954796870999928,0.0],[121.340437775000055,-3.954749281999966,0.0],[121.340187932000049,-3.954814717999966,0.0],[121.339813167000102,-3.955001107999976,0.0],[121.339456247000044,-3.955072491999942,0.0],[121.339027944,-3.95513197899993,0.0],[121.33874240900002,-3.955548384999929,0.0],[121.338062835000073,-3.956252101999951,0.0],[121.337884375000044,-3.956409145999942,0.0],[121.338020006000079,-3.956737511999961,0.0],[121.338212612,-3.957034305999969,0.0],[121.338103937000028,-3.957057770999938,0.0],[121.338015335000023,-3.957085759999927,0.0],[121.337879905000023,-3.957142204999968,0.0],[121.337771357000065,-3.957198945999949,0.0],[121.337698608000096,-3.95726174899994,0.0],[121.337620186000095,-3.957366298999943,0.0],[121.337566429000049,-3.957445011999937,0.0],[121.337504231000025,-3.957507835999934,0.0],[121.337386099000014,-3.95760544999996,0.0],[121.337311783000018,-3.957668019999971,0.0],[121.337242729000081,-3.957745787999954,0.0],[121.337176757000066,-3.957832912999947,0.0],[121.33710304400006,-3.957912202999978,0.0],[121.337050099000066,-3.958004339999945,0.0],[121.337015662000113,-3.958085715999971,0.0],[121.33698189200004,-3.958210921999978,0.0],[121.336968028000115,-3.958315601999971,0.0],[121.336943067000107,-3.958432526999957,0.0],[121.336893135000082,-3.958569543999943,0.0],[121.336840524000081,-3.958698309999932,0.0],[121.33678941200003,-3.958804785999973,0.0],[121.336723454000094,-3.958885051999971,0.0],[121.336645538000084,-3.958950003999973,0.0],[121.336541718000035,-3.959029570999974,0.0],[121.336433727000099,-3.959118160999935,0.0],[121.336329848000105,-3.959227020999947,0.0],[121.336215710000033,-3.959346221999965,0.0],[121.336103154000057,-3.959448831999964,0.0],[121.336029778000011,-3.959513503999972,0.0],[121.335911973000066,-3.95961269999998,0.0],[121.335839226000076,-3.959673631999976,0.0],[121.335719418000053,-3.959800941999958,0.0],[121.335619228000041,-3.95989239599993,0.0],[121.335492517000034,-3.959933899999953,0.0],[121.335305617000017,-3.959981696999932,0.0],[121.335132996000084,-3.960011265999981,0.0],[121.335029305000035,-3.960026014999926,0.0],[121.334955483000044,-3.960056012999928,0.0],[121.334809429000074,-3.960147959999972,0.0],[121.334768887000109,-3.960182332999977,0.0],[121.334695021000016,-3.960244957999976,0.0],[121.334564044000103,-3.960352773999944,0.0],[121.334486299000105,-3.960429900999941,0.0],[121.334353631000113,-3.960549000999947,0.0],[121.334260343000096,-3.96063793899998,0.0],[121.334121283000059,-3.960777732999929,0.0],[121.334117046000074,-3.960781182999938,0.0],[121.333780566000087,-3.961066852999977,0.0],[121.333724547000088,-3.961131817999956,0.0],[121.333721884000056,-3.961130626999932,0.0],[121.33365634800009,-3.961076534999961,0.0],[121.333271630000013,-3.960758996999971,0.0],[121.333227166000029,-3.960722297999951,0.0],[121.333222620000015,-3.960718544999963,0.0],[121.333221247000097,-3.960720170999934,0.0],[121.333196941000097,-3.960737933999951,0.0],[121.333194264000099,-3.960739547999935,0.0],[121.333166303000098,-3.960759695999968,0.0],[121.3331627660001,-3.960761759999968,0.0],[121.333160452000016,-3.960762449999947,0.0],[121.333157012000015,-3.960762396999939,0.0],[121.333155323000028,-3.960761744999957,0.0],[121.333145831000024,-3.960753733999979,0.0],[121.333132627000055,-3.960730428999966,0.0],[121.333075010000016,-3.960648164999952,0.0],[121.333070422000105,-3.960641491999979,0.0],[121.333049028000119,-3.960607501999959,0.0],[121.333009493000077,-3.960549087999937,0.0],[121.332988383000043,-3.960518103999959,0.0],[121.332908727000017,-3.960403840999959,0.0],[121.332888240000102,-3.960374813999977,0.0],[121.332864542000038,-3.960340567999936,0.0],[121.332842496000012,-3.960308657999974,0.0],[121.332796687000041,-3.96024291699996,0.0],[121.332761548,-3.960191007999981,0.0],[121.332741571000042,-3.960161500999959,0.0],[121.332720857000027,-3.960131432999958,0.0],[121.332691189000116,-3.960088993999932,0.0],[121.332617156000083,-3.959981408999965,0.0],[121.332556932000102,-3.959894676999966,0.0],[121.332505342000104,-3.959821278999925,0.0],[121.332450781000034,-3.959741932999975,0.0],[121.332397429000025,-3.959665270999949,0.0],[121.332371796000075,-3.959629013999972,0.0],[121.332326851000062,-3.959564607999937,0.0],[121.332303167000077,-3.959529442999951,0.0],[121.332292246000065,-3.959513280999943,0.0],[121.332264888000054,-3.959476308999967,0.0],[121.332219878000046,-3.959410988999934,0.0],[121.33217839200006,-3.959351937999941,0.0],[121.332137416000023,-3.95929452699994,0.0],[121.33210998200002,-3.959255678999966,0.0],[121.332096682000042,-3.959235977999981,0.0],[121.332063535000088,-3.959189313999957,0.0],[121.331997236,-3.959096777999946,0.0],[121.331968363000101,-3.959056662999956,0.0],[121.331964463000077,-3.959051447999968,0.0],[121.331961604000071,-3.959047689999977,0.0],[121.331932481000081,-3.959006841999951,0.0],[121.331895891000045,-3.95895540999993,0.0],[121.331861224000022,-3.958906488999958,0.0],[121.331825166000044,-3.958855564999965,0.0],[121.331793239000035,-3.958811270999945,0.0],[121.331752894000033,-3.95875564499994,0.0],[121.331735258000094,-3.95873133799995,0.0],[121.331687866000038,-3.958664877999979,0.0],[121.331657471000085,-3.958621900999958,0.0],[121.331650029000116,-3.958611236999957,0.0],[121.331569462000061,-3.95849538899995,0.0],[121.331495492000045,-3.958393429999944,0.0],[121.331444649000105,-3.958321539999929,0.0],[121.331423929000039,-3.958292485999948,0.0],[121.331412375000014,-3.958275567999976,0.0],[121.331402712000113,-3.958261021999931,0.0],[121.331380922000108,-3.958225943999935,0.0],[121.331351017000088,-3.958179602999962,0.0],[121.331299968000053,-3.958101601999942,0.0],[121.331266593,-3.958048206999933,0.0],[121.331223423000097,-3.957979775999945,0.0],[121.331144698000116,-3.95785673499995,0.0],[121.331108801000028,-3.957800128999963,0.0],[121.331055089000074,-3.957716197999957,0.0],[121.331014481000011,-3.957653038999979,0.0],[121.33100312800002,-3.957635124999968,0.0],[121.330969961000051,-3.957581196999968,0.0],[121.33096023600001,-3.957565265999961,0.0],[121.330949688000032,-3.957546343999979,0.0],[121.330944898000098,-3.957537669999965,0.0],[121.33089540200001,-3.957444124999938,0.0],[121.33084227400002,-3.957345508999936,0.0],[121.330786940000053,-3.957243135999931,0.0],[121.330770153000117,-3.957211540999936,0.0],[121.330766185000016,-3.95720412299994,0.0],[121.330749707000109,-3.957173492999971,0.0],[121.330715267000073,-3.957109560999925,0.0],[121.330685258000017,-3.957054958999947,0.0],[121.330607480000026,-3.956915103999961,0.0],[121.33057632100008,-3.956859463999933,0.0],[121.330546042000037,-3.956804965999936,0.0],[121.330514331000018,-3.956749040999966,0.0],[121.330496801000095,-3.956717731999959,0.0],[121.330492319000086,-3.956709724999939,0.0],[121.330484007000109,-3.956694444999926,0.0],[121.330433548000087,-3.956601979999959,0.0],[121.330387738000013,-3.956518843999959,0.0],[121.330369286000064,-3.95648552199998,0.0],[121.330506083000046,-3.956284371999971,0.0],[121.330269090000115,-3.955778972999951,0.0],[121.329929302000096,-3.955320689999951,0.0],[121.32963234500005,-3.954890958999954,0.0],[121.329500999000061,-3.95450405899993,0.0],[121.329423904,-3.95404720199997,0.0],[121.329333960000099,-3.953817345999937,0.0],[121.329035576000024,-3.95340760199997,0.0],[121.328811432000066,-3.952873650999948,0.0],[121.328861399000061,-3.952806550999981,0.0],[121.329139797000039,-3.952655216999972,0.0],[121.3298265090001,-3.952156957999932,0.0],[121.33024053500003,-3.951802893999968,0.0],[121.330511794000017,-3.951600164999945,0.0],[121.330824455000084,-3.951493088999939,0.0],[121.331268462000025,-3.951320338999949,0.0],[121.331458343,-3.95121611899998,0.0],[121.331463369000062,-3.951050191999968,0.0],[121.331219207000117,-3.950808833999929,0.0],[121.330829809000079,-3.950354832999949,0.0],[121.330775557000038,-3.950267744999962,0.0],[121.330639929000085,-3.950133542999936,0.0],[121.330548557000043,-3.950039317999938,0.0],[121.3307213060001,-3.949945089999972,0.0],[121.330884060000017,-3.949865139999929,0.0],[121.33101397900009,-3.949825165999926,0.0],[121.331171023000024,-3.949800895999942,0.0],[121.331295231000013,-3.94976948599998,0.0],[121.331409445000077,-3.949766630999932,0.0],[121.331515093,-3.949755208999932,0.0],[121.331603609000013,-3.94973379399994,0.0],[121.331589333000011,-3.949628146999942,0.0],[121.33157505600002,-3.949523924999937,0.0],[121.331577912000057,-3.949466817999962,0.0],[121.332074743000021,-3.949354031999974,0.0],[121.332083309000041,-3.94929835399995,0.0],[121.332457361000024,-3.949196987999926,0.0],[121.332517322000058,-3.949174144999972,0.0],[121.332582995000053,-3.949162722999972,0.0],[121.33286995900005,-3.949099905999958,0.0],[121.332979890000047,-3.949091338999949,0.0],[121.333108381000102,-3.949057074999928,0.0],[121.333165488000077,-3.94900996299998,0.0],[121.3332482940001,-3.948974269999951,0.0],[121.333296834000066,-3.948942860999978,0.0],[121.33333109900002,-3.948927156999957,0.0],[121.333435318000056,-3.948885753999946,0.0],[121.333559526000045,-3.948848633999944,0.0],[121.333675168000013,-3.948815797999941,0.0],[121.333767967000085,-3.948795810999968,0.0],[121.33430191900004,-3.948754407999957,0.0],[121.334387579,-3.948713005999934,0.0],[121.334504648,-3.948661608999942,0.0],[121.334547478000104,-3.94866303699996,0.0],[121.334598876000086,-3.948681596999961,0.0],[121.334685963000084,-3.948683023999934,0.0],[121.334747353000012,-3.948698727999954,0.0],[121.334848718000103,-3.948728709999955,0.0],[121.334932951000042,-3.948735847999956,0.0],[121.334766597000112,-3.948355252999932,0.0],[121.334478088000083,-3.947781207999981,0.0],[121.334124143000054,-3.947126855999954,0.0],[121.333901068000046,-3.946710450999944,0.0],[121.333743429000037,-3.946463582999968,0.0],[121.333706731,-3.946309583999948,0.0],[121.334030440000106,-3.946122174999971,0.0],[121.334034191000114,-3.94612000099994,0.0],[121.33450665600003,-3.945846469999935,0.0],[121.336143105000019,-3.944973098999981,0.0],[121.337757525000029,-3.944131901999981,0.0],[121.340384414000027,-3.94269172199995,0.0],[121.340505530000087,-3.942724535999957,0.0],[121.340537891000054,-3.942836846999967,0.0],[121.340594532000068,-3.942966650999949,0.0],[121.340674947000025,-3.943150935999938,0.0],[121.340821924000011,-3.943264179999971,0.0],[121.340907184000116,-3.943329870999946,0.0],[121.341279307000036,-3.943627707999951,0.0],[121.341426833000014,-3.943794270999945,0.0],[121.341436351000084,-3.943925141999955,0.0],[121.341431916000033,-3.943937036999955,0.0],[121.341400874000101,-3.944020285999954,0.0],[121.34138400300003,-3.944065529999932,0.0],[121.341324518000079,-3.944120257999941,0.0],[121.341402316000085,-3.944229520999954,0.0],[121.341859895000084,-3.944872166999971,0.0],[121.342152569000064,-3.94536233599996,0.0],[121.342156068,-3.945370693999962,0.0],[121.342301047000092,-3.945717034999973,0.0],[121.342408123000041,-3.945900846999962,0.0],[121.342515199000104,-3.94608465999994,0.0],[121.343164792000039,-3.946995994999952,0.0],[121.343283765000024,-3.947012649999976,0.0],[121.343474122000089,-3.946743771999934,0.0],[121.343627597000022,-3.946534378999957,0.0],[121.343852456000036,-3.94657720899994,0.0],[121.344165260000068,-3.946688329999972,0.0],[121.344241403000069,-3.946694039999954,0.0],[121.344473639000057,-3.946667389999959,0.0],[121.344877195000095,-3.946591247999947,0.0],[121.345227451000028,-3.946583632999932,0.0],[121.345353087000035,-3.946583632999932,0.0],[121.345421615000078,-3.946595054999932,0.0],[121.345457942000053,-3.946628129999965,0.0],[121.34546746,-3.946673339999961,0.0],[121.345473409000078,-3.946723308999935,0.0],[121.345460322,-3.946774465999965,0.0],[121.345462701000088,-3.946835141999941,0.0],[121.345526946000064,-3.946949357999927,0.0],[121.34554003300002,-3.946986237999965,0.0],[121.34560546900002,-3.946923182999967,0.0],[121.345700647000058,-3.946926751999968,0.0],[121.34577678900007,-3.946960063999938,0.0],[121.34602425300011,-3.947070708999945,0.0],[121.346038530000101,-3.947060001999944,0.0],[121.346107535000101,-3.947076657999958,0.0],[121.34626576900007,-3.947156369999959,0.0],[121.346374827000091,-3.947222994999947,0.0]]]]}}
]
}
