{
"type": "FeatureCollection",
"name": "Sektor_Potensi_Ulaweng",
"crs": { "type": "name", "properties": { "name": "urn:ogc:def:crs:OGC:1.3:CRS84" } },
"features": [
{"type":"Feature","properties":{"fid":1,"sektor":"Tambak","varietas":"Ikan,Udang"},"geometry":{"type":"Polygon","coordinates":[[[121.3331392808239,-3.955231546824588],[121.333158421608942,-3.955269737216547],[121.333141497120621,-3.955359786146499],[121.3331392808239,-3.955364208182032],[121.333094954794348,-3.955408428629794],[121.333072791779614,-3.955452649075196],[121.333050628764852,-3.955496869518236],[121.333050628764852,-3.955541089958921],[121.333050628764852,-3.955585310397242],[121.333050628764852,-3.955629530833206],[121.334136616488138,-3.956491828862744],[121.334277662836158,-3.956643873418646],[121.334440641281205,-3.956310265955787],[121.334469061709569,-3.956093845268324],[121.334469061709569,-3.956049624857142],[121.334469061709569,-3.956005404443602],[121.334469061709569,-3.9559611840277],[121.334446898694807,-3.955916963609438],[121.33443360088603,-3.955890431357254],[121.334469061709569,-3.955872743188814],[121.334469061709569,-3.955828522765832],[121.334513387739094,-3.955806412553456],[121.334557713768618,-3.955806412553456],[121.334602039798142,-3.95578430234049],[121.334646365827638,-3.95578430234049],[121.334690691857176,-3.95578430234049],[121.334735017886686,-3.95578430234049],[121.335133952152404,-3.955740081912788],[121.335178278181942,-3.955740081912788],[121.335222604211438,-3.955740081912788],[121.335266930240934,-3.955740081912788],[121.335311256270487,-3.955740081912788],[121.335355582300011,-3.955740081912788],[121.335399908329549,-3.955740081912788],[121.335444234359045,-3.955740081912788],[121.335488560388598,-3.955740081912788],[121.335532886418093,-3.955717971698051],[121.335577212447646,-3.955695861482725],[121.33562153847717,-3.955673751266808],[121.335710190536204,-3.955629530833206],[121.335832827683959,-3.955599749635315],[121.335876791465083,-3.955567586330674],[121.335932478921208,-3.955678695923235],[121.336020406483456,-3.955608521445455],[121.336196261608038,-3.95541554160092],[121.33628642891999,-3.955319987731909],[121.336330754949515,-3.955319987731909],[121.336463733038073,-3.955364208182032],[121.336508059067626,-3.955386318406208],[121.336552385097121,-3.955386318406208],[121.336729688819133,-3.955468172472067],[121.336729688819133,-3.955468172472067],[121.336818341274281,-3.955983294235945],[121.33761620980566,-3.956359167685847],[121.33761620980566,-3.956359167685847],[121.337660535835184,-3.956381277883471],[121.337727024879499,-3.956425498276951],[121.337771350908994,-3.956447608472807],[121.337771350908994,-3.956491828862744],[121.337771350908994,-3.956536049250323],[121.337771350908994,-3.95658026963554],[121.337771350908994,-3.956624490018395],[121.337771350908994,-3.956668710398893],[121.337771350908994,-3.956712930777027],[121.337771350908994,-3.956757151152804],[121.337771350908994,-3.956801371526218],[121.337771350908994,-3.956845591897274],[121.337771350908994,-3.956889812265967],[121.337771350908994,-3.956934032632298],[121.337749187894232,-3.956978252996269],[121.337749187894232,-3.957022473357879],[121.337727024879499,-3.95706669371713],[121.33770486186468,-3.957110914074019],[121.33770486186468,-3.957155134428547],[121.337660535835184,-3.957155134428547],[121.337660535835184,-3.957199354780715],[121.33761620980566,-3.957243575130519],[121.33757188377615,-3.957243575130519],[121.33757188377615,-3.957287795477967],[121.337527557746625,-3.957332015823053],[121.337483231717073,-3.957376236165778],[121.337461068702339,-3.957420456506139],[121.337438905687577,-3.95746467684414],[121.337438905687577,-3.95750889717978],[121.337416742672815,-3.95755311751306],[121.337372416643277,-3.957575227678814],[121.337350253628543,-3.957619448008553],[121.337305927599019,-3.957641558172536],[121.337305927599019,-3.957685778498732],[121.337261601569466,-3.957685778498732],[121.337195112525208,-3.957707888660946],[121.337195112525208,-3.957752108983597],[121.337150786495684,-3.95777421914404],[121.337106460466174,-3.95777421914404],[121.337084297451412,-3.957818439463153],[121.337062134436621,-3.957862659779905],[121.337017808407126,-3.957884769937394],[121.336995645392363,-3.957928990250604],[121.336995645392363,-3.957973210561451],[121.336995645392363,-3.958017430869938],[121.336995645392363,-3.958061651176064],[121.336995645392363,-3.958105871479828],[121.336973482377601,-3.95815009178123],[121.336973482377601,-3.95819431208027],[121.336973482377601,-3.95823853237695],[121.336973482377601,-3.958282752671267],[121.336951319362811,-3.958326972963224],[121.336951319362811,-3.958371193252816],[121.336951319362811,-3.958415413540051],[121.336951319362811,-3.958459633824922],[121.336906993333315,-3.958481743966473],[121.336906993333315,-3.958525964247802],[121.336906993333315,-3.958570184526769],[121.336862667303777,-3.958592294665368],[121.336818341274281,-3.958614404803375],[121.336796178259519,-3.958658625077618],[121.336774015244757,-3.9587028453495],[121.336729689215232,-3.9587028453495],[121.33670752620047,-3.958747065619022],[121.33670752620047,-3.95879128588618],[121.336663200170918,-3.95879128588618],[121.33664103715617,-3.958835506150976],[121.336618874141422,-3.958879726413411],[121.336596711126674,-3.958923946673484],[121.336552385097121,-3.958923946673484],[121.336552385097121,-3.958968166931195],[121.336530222082359,-3.959012387186543],[121.336485896052807,-3.959012387186543],[121.336463733038073,-3.959056607439529],[121.336463733038073,-3.959100827690155],[121.336419407008549,-3.959100827690155],[121.33637508097901,-3.959145047938418],[121.336352917964277,-3.959189268184319],[121.336308591934753,-3.959189268184319],[121.33628642891999,-3.959233488427857],[121.336242102890466,-3.959277708669034],[121.336197776860942,-3.959277708669034],[121.336197776860942,-3.959321928907849],[121.336153450831404,-3.95934403902637],[121.33613128781667,-3.959388259261641],[121.336086961787146,-3.95941036937839],[121.336086961787146,-3.959454589610118],[121.336042635757622,-3.959476699725098],[121.335998309728097,-3.959498809839486],[121.335976146713335,-3.959543030066489],[121.335931820683811,-3.959543030066489],[121.335909657669049,-3.95958725029113],[121.335887494654301,-3.959631470513408],[121.335843168624749,-3.959653580623662],[121.335798842595253,-3.959653580623662],[121.3357545165657,-3.959675690733325],[121.3357545165657,-3.959719910950879],[121.335710190536204,-3.959719910950879],[121.33566586450668,-3.959719910950879],[121.33562153847717,-3.95974202105877],[121.335577212447646,-3.959764131166072],[121.335555049432884,-3.959808351378899],[121.33551072340336,-3.959808351378899],[121.335466397373835,-3.959830461484429],[121.335422071344297,-3.959852571589367],[121.335399908329549,-3.959896791797472],[121.335355582300011,-3.959918901900637],[121.335311256270487,-3.959918901900637],[121.335311256270487,-3.959963122105198],[121.335266930240934,-3.959985232206592],[121.335222604211438,-3.959985232206592],[121.335178278181942,-3.959985232206592],[121.335133952152404,-3.959985232206592],[121.335089626122908,-3.959985232206592],[121.335045300093327,-3.959985232206592],[121.335000974063831,-3.959985232206592],[121.334956648034293,-3.959985232206592],[121.334912322004797,-3.960007342307396],[121.334867995975273,-3.960007342307396],[121.334823669945749,-3.960007342307396],[121.334779343916225,-3.960051562507231],[121.334735017886686,-3.960051562507231],[121.334712854871938,-3.960095782704704],[121.334668528842428,-3.960117892802555],[121.334646365827638,-3.960162112996484],[121.334602039798142,-3.960184223092563],[121.334602039798142,-3.960228443282949],[121.334557713768618,-3.960272663470969],[121.334513387739094,-3.960294773564096],[121.334513387739094,-3.960338993748573],[121.334491224724331,-3.960383213930689],[121.334446898694807,-3.960405324020861],[121.334424735680031,-3.960449544199431],[121.334424735680031,-3.96049376437564],[121.334380409650535,-3.960515874462857],[121.334336083621011,-3.960537984549485],[121.334336083621011,-3.960582204720969],[121.334291757591487,-3.960604314805822],[121.333937149355293,-3.960781195463399],[121.333892823325769,-3.960781195463399],[121.333848497296216,-3.960781195463399],[121.333804171266721,-3.960781195463399],[121.333759845237196,-3.960781195463399],[121.333715519207686,-3.960781195463399],[121.333671193178162,-3.960759085383268],[121.33362686714861,-3.960736975302549],[121.333383073986269,-3.960582204720969],[121.333338747956745,-3.960560094635522],[121.333316584941954,-3.960515874462857],[121.333272258912459,-3.960515874462857],[121.333250095897696,-3.96047165428783],[121.333205769868158,-3.960427434110441],[121.333183606853424,-3.960383213930689],[121.333161443838662,-3.960338993748573],[121.33311711780911,-3.960316883656628],[121.333094954794348,-3.960272663470969],[121.333072791779614,-3.960228443282949],[121.333072791779614,-3.960184223092563],[121.333034798041538,-3.960165271582391],[121.33302846575009,-3.960162112996484],[121.333006302735313,-3.960117892802555],[121.332984139720566,-3.960073672606263],[121.332961976705818,-3.960029452407609],[121.332939813691056,-3.959985232206592],[121.332917650676265,-3.959941012003213],[121.332917650676265,-3.959896791797472],[121.332895487661503,-3.959852571589367],[121.332851161632007,-3.959808351378899],[121.332828998617245,-3.959764131166072],[121.332806835602454,-3.959719910950879],[121.332762509572959,-3.959719910950879],[121.332740346558197,-3.959675690733325],[121.33271818354342,-3.959631470513408],[121.332673857513896,-3.959609360402564],[121.332651694499162,-3.959565140179103],[121.332629531484343,-3.959520919953282],[121.332585205454848,-3.959498809839486],[121.332563042440114,-3.959454589610118],[121.33254087943007,-3.959432479498977],[121.332518716410547,-3.95941036937839],[121.332496553395814,-3.9593661491443],[121.332474390381051,-3.959321928907849],[121.332452227366289,-3.959277708669034],[121.332430064351499,-3.959233488427857],[121.332407901336765,-3.959189268184319],[121.332385738322003,-3.959145047938418],[121.332385738322003,-3.959100827690155],[121.332341412292479,-3.959056607439529],[121.332319249277688,-3.959012387186543],[121.332319249277688,-3.958968166931195],[121.332297086262955,-3.958923946673484],[121.332274923248193,-3.958879726413411],[121.332252760233445,-3.958835506150976],[121.332230597218683,-3.95879128588618],[121.332208434203892,-3.958747065619022],[121.332186271189158,-3.9587028453495],[121.332164108174396,-3.958658625077618],[121.332119782144872,-3.958636514940792],[121.332097619130082,-3.958592294665368],[121.332053293100586,-3.958570184526769],[121.332031130085824,-3.958525964247802],[121.332008967071047,-3.958481743966473],[121.331964641041552,-3.958481743966473],[121.331942478026789,-3.958437523682782],[121.331920315012027,-3.95839330339673],[121.331875988982503,-3.95839330339673],[121.331875988982503,-3.958349083108316],[121.331853825967741,-3.958304862817541],[121.331809499938217,-3.958282752671267],[121.331787336923441,-3.95823853237695],[121.331743010893945,-3.95819431208027],[121.331698684864392,-3.958172201931045],[121.33167652184963,-3.958127981630823],[121.331654358834896,-3.958083761328241],[121.331632195820134,-3.958039541023296],[121.331587869790582,-3.958039541023296],[121.331587869790582,-3.957995320715988],[121.331587869790582,-3.957951100406324],[121.331543543761086,-3.957951100406324],[121.331521380746324,-3.957906880094294],[121.331499217731547,-3.957862659779905],[121.331463756913294,-3.957844971656105],[121.331454891702052,-3.957840549621824],[121.331454891702052,-3.957833179564859],[121.331454891702052,-3.957796329303893],[121.331410565672471,-3.95777421914404],[121.331410565672471,-3.957729998822566],[121.331410565672471,-3.957685778498732],[121.331366239642975,-3.957663668335928],[121.331366239642975,-3.957619448008553],[121.331321913613436,-3.957597337843979],[121.331321913613436,-3.95755311751306],[121.331299750598703,-3.95750889717978],[121.331277587583941,-3.95746467684414],[121.331233261554445,-3.957420456506139],[121.331188935524892,-3.957398346336252],[121.331144609495368,-3.957376236165778],[121.331122446480606,-3.957332015823053],[121.33110028346583,-3.957287795477967],[121.331070732783019,-3.957273055364109],[121.33105595743632,-3.95726568530454],[121.331033794421572,-3.957221464955914],[121.33101163140681,-3.957177244604926],[121.330989468392019,-3.957133024251579],[121.330967305377285,-3.95708880389587],[121.330945142362523,-3.9570445835378],[121.330900816332971,-3.957022473357879],[121.330878653318237,-3.956978252996269],[121.330834327288713,-3.956956142814578],[121.330812164273951,-3.956911922449427],[121.330790001259174,-3.956867702081914],[121.330790001259174,-3.95682348171204],[121.330767838244441,-3.956779261339806],[121.330745675229679,-3.956735040965212],[121.330745675229679,-3.956690820588256],[121.330701349200154,-3.95664660020894],[121.330701349200154,-3.956602379827264],[121.330701349200154,-3.956558159443226],[121.330679186185364,-3.956513939056828],[121.33065702317063,-3.956469718668071],[121.33065702317063,-3.956425498276951],[121.330634860155868,-3.956381277883471],[121.330634860155868,-3.956346189702241],[121.330634860155868,-3.956337057487633],[121.330612697141106,-3.956292837089433],[121.330568371111568,-3.956248616688875],[121.330568371111568,-3.956204396285953],[121.330568371111568,-3.956160175880672],[121.33054620809682,-3.956115955473031],[121.33050188206731,-3.956093845268324],[121.3304619886475,-3.956054046905026],[121.330457556037757,-3.956049624857142],[121.330435393023023,-3.956005404443602],[121.330413230008261,-3.9559611840277],[121.330391066993499,-3.955916963609438],[121.330391066993499,-3.955872743188814],[121.330346740963975,-3.955872743188814],[121.330324577949213,-3.955828522765832],[121.330302414934451,-3.95578430234049],[121.330280251919675,-3.955740081912788],[121.330258088904912,-3.955695861482725],[121.330258088904912,-3.955651641050303],[121.330213762875417,-3.955629530833206],[121.330169436845864,-3.955607420615519],[121.330169436845864,-3.955563200178376],[121.330147273831102,-3.955518979738875],[121.330125110816368,-3.955474759297014],[121.330102947801564,-3.95543053885279],[121.330058621772068,-3.955386318406208],[121.330036458757306,-3.955342097957265],[121.330036458757306,-3.955297877505964],[121.329992132727753,-3.955275767279429],[121.329992132727753,-3.955231546824588],[121.329969969713019,-3.955187326367386],[121.329925643683524,-3.955143105907824],[121.329881317653957,-3.955098885445904],[121.329859154639209,-3.955054664981621],[121.329814828609699,-3.955032554748597],[121.329792665594908,-3.954988334280779],[121.329792665594908,-3.9549441138106],[121.329748339565413,-3.9549441138106],[121.329726176550651,-3.954899893338059],[121.329726176550651,-3.954855672863162],[121.329704013535888,-3.954811452385905],[121.329704013535888,-3.954767231906287],[121.329681850521098,-3.95472301142431],[121.329681850521098,-3.954678790939974],[121.329637524491602,-3.954656680696921],[121.329637524491602,-3.954612460209046],[121.32961536147684,-3.954568239718809],[121.32961536147684,-3.954524019226216],[121.32961536147684,-3.954479798731263],[121.329593198462078,-3.954435578233952],[121.329571035447302,-3.954391357734279],[121.329571035447302,-3.954347137232248],[121.329571035447302,-3.954302916727858],[121.329571035447302,-3.954258696221108],[121.329571035447302,-3.954214475711999],[121.329571035447302,-3.954170255200531],[121.329571035447302,-3.954126034686703],[121.329571035447302,-3.954081814170518],[121.329571035447302,-3.95403759365197],[121.329571035447302,-3.953993373131069],[121.329548872432568,-3.953949152607805],[121.329526709417806,-3.953904932082183],[121.329526709417806,-3.953860711554201],[121.329482383388282,-3.953838601289326],[121.329460220373491,-3.953794380757807],[121.329438057358757,-3.953750160223929],[121.329438057358757,-3.953705939687691],[121.329393731329233,-3.953683829418687],[121.329393731329233,-3.953639608878911],[121.329371568314457,-3.953595388336778],[121.329371568314457,-3.953551167792284],[121.329327242284961,-3.953529057519156],[121.329118092844695,-3.95340679418724],[121.329014951246322,-3.953267216624877],[121.328928308019229,-3.953108962217629],[121.328928308019229,-3.953064741647189],[121.328928308019229,-3.953020521074393],[121.328928308019229,-3.952976300499239],[121.328928308019229,-3.952932079921727],[121.328928308019229,-3.952887859341855],[121.328950471033991,-3.952843638759627],[121.329061286107802,-3.952733087293735],[121.329814828609699,-3.952202440052292],[121.330102947801564,-3.951981336934807],[121.330125110816368,-3.951937116304238],[121.330191599860626,-3.95189289567131],[121.330258088904912,-3.951848675036025],[121.330302414934451,-3.951826564717496],[121.330346740963975,-3.951804454398382],[121.330346740963975,-3.951760233758381],[121.330391066993499,-3.951738123437495],[121.330435393023023,-3.951716013116022],[121.330479719052519,-3.951671792471305],[121.330524045082072,-3.95164968214806],[121.330590534126344,-3.95160546149981],[121.330680272534423,-3.951588098735336],[121.33073595999052,-3.95158225083356],[121.33079750928411,-3.951553011324058],[121.330867851333934,-3.951541315519968],[121.330955778896225,-3.951538391568922],[121.331002673596117,-3.951484298472672],[121.331096462995902,-3.951478450570163],[121.331233261554445,-3.951406468553496],[121.331277587583941,-3.951406468553496],[121.331321913613436,-3.951406468553496],[121.331366239642975,-3.951406468553496],[121.331410565672471,-3.951384358223181],[121.331454891702052,-3.951362247892277],[121.331499217731547,-3.951340137560783],[121.331499217731547,-3.951295916896026],[121.331543543761086,-3.951295916896026],[121.33156570677582,-3.951251696228915],[121.331587869790582,-3.951207475559445],[121.33156570677582,-3.95114114455082],[121.331610032805344,-3.951119034213431],[121.331632195820134,-3.951074813536889],[121.33167652184963,-3.951052703197735],[121.33167652184963,-3.951030592857991],[121.331720847879183,-3.951008482517657],[121.331765173908693,-3.950986372176734],[121.331809499938217,-3.950964261835221],[121.331853825967741,-3.950964261835221],[121.331898151997237,-3.950964261835221],[121.331942478026789,-3.950964261835221],[121.331986804056285,-3.950964261835221],[121.332031130085824,-3.950986372176734],[121.332075456115348,-3.950986372176734],[121.332075456115348,-3.951030592857991],[121.332075456115348,-3.951074813536891],[121.332119782144872,-3.951096923875456],[121.332119782144872,-3.95114114455082],[121.332141945159634,-3.951185365223825],[121.332164108174396,-3.951229585894475],[121.332186271189158,-3.951273806562766],[121.332208434203892,-3.951318027228701],[121.332230597218683,-3.951362247892277],[121.332230597218683,-3.951406468553496],[121.332274923248193,-3.951428578883222],[121.332274923248193,-3.951472799540907],[121.332274923248193,-3.951517020196231],[121.332274923248193,-3.951561240849199],[121.332274923248193,-3.95160546149981],[121.332274923248193,-3.95164968214806],[121.332230597218683,-3.951671792471305],[121.332230597218683,-3.951716013116022],[121.332219515711145,-3.951738123437495],[121.332208434203892,-3.951738123437495],[121.332208434203892,-3.951760233758381],[121.332164108174396,-3.951782344078675],[121.332119782144872,-3.951804454398382],[121.332075456115348,-3.951826564717496],[121.332031130085824,-3.951826564717496],[121.331986804056285,-3.951848675036025],[121.331942478026789,-3.951848675036025],[121.331942478026789,-3.95189289567131],[121.331942478026789,-3.951937116304238],[121.331964641041552,-3.951981336934807],[121.331964641041552,-3.952025557563018],[121.332008967071047,-3.95204766787624],[121.332031130085824,-3.952091888500916],[121.332031130085824,-3.952136109123235],[121.332075456115348,-3.952158219433509],[121.332097619130082,-3.952202440052292],[121.332119782144872,-3.952246660668714],[121.332119782144872,-3.952290881282779],[121.332119782144872,-3.952335101894486],[121.332119782144872,-3.952379322503834],[121.332164108174396,-3.952401432807625],[121.332164108174396,-3.952445653413436],[121.332208434203892,-3.952467763715458],[121.332208434203892,-3.952511984317733],[121.332208434203892,-3.952556204917649],[121.332230597218683,-3.952600425515208],[121.332252760233445,-3.952644646110409],[121.332252760233445,-3.952688866703249],[121.332252760233445,-3.952733087293735],[121.332252760233445,-3.952777307881859],[121.332252760233445,-3.952821528467627],[121.332297086262955,-3.952821528467627],[121.332297086262955,-3.952865749051036],[121.332297086262955,-3.952909969632086],[121.332297086262955,-3.952954190210777],[121.332319249277688,-3.952998410787111],[121.332319249277688,-3.953042631361088],[121.332341412292479,-3.953086851932704],[121.332341412292479,-3.953131072501963],[121.332341412292479,-3.953175293068863],[121.332341412292479,-3.953219513633406],[121.332341412292479,-3.953263734195587],[121.332341412292479,-3.953307954755412],[121.332341412292479,-3.953352175312876],[121.332341412292479,-3.953396395867983],[121.332319249277688,-3.953440616420733],[121.332319249277688,-3.953484836971123],[121.332319249277688,-3.953529057519156],[121.332319249277688,-3.953573278064827],[121.332319249277688,-3.95361749860814],[121.332297086262955,-3.953661719149096],[121.332319249277688,-3.953705939687691],[121.332319249277688,-3.953750160223929],[121.332297086262955,-3.953794380757807],[121.332297086262955,-3.953838601289326],[121.332297086262955,-3.953882821818485],[121.332297086262955,-3.953927042345289],[121.332297086262955,-3.953971262869731],[121.332297086262955,-3.954015483391815],[121.332274923248193,-3.95405970391154],[121.332252760233445,-3.954103924428907],[121.332230597218683,-3.954148144943912],[121.332208434203892,-3.954192365456557],[121.332208434203892,-3.954236585966846],[121.332208434203892,-3.954280806474775],[121.332208434203892,-3.954325026980347],[121.332252760233445,-3.954347137232248],[121.332297086262955,-3.954369247483558],[121.332341412292479,-3.954391357734279],[121.332385738322003,-3.954413467984407],[121.332407901336765,-3.954457688482903],[121.332452227366289,-3.954479798731263],[121.332474390381051,-3.954524019226216],[121.332518716410547,-3.954524019226216],[121.332540879425324,-3.954568239718809],[121.332563042439844,-3.954590349963689],[121.332563042440114,-3.954590349964222],[121.332563042440654,-3.954590349964494],[121.332585205454848,-3.954612460209046],[121.332614756141311,-3.954627200371928],[121.332629531484343,-3.954656680696921],[121.332640612991895,-3.954656680696921],[121.332651694499162,-3.954678790939974],[121.332673857513896,-3.95472301142431],[121.332696020528658,-3.954767231906287],[121.332696020528658,-3.954789342146392],[121.332984139720566,-3.955032554748597],[121.333021078083235,-3.955032554748597],[121.3331392808239,-3.9551652161379],[121.333150362330741,-3.955187326366013],[121.3331392808239,-3.955231546824588]]]}},
{"type":"Feature","properties":{"fid":2,"sektor":"Kelapa","varietas":"Kelapa Hijau"},"geometry":{"type":"Polygon","coordinates":[[[121.332496553395814,-3.954302916727858],[121.332511328739102,-3.954310286812078],[121.332540879425324,-3.954325026980347],[121.332563042440114,-3.954325026980347],[121.332585205454848,-3.954325026980347],[121.332585205454848,-3.954336082106291],[121.332585205454848,-3.954369247483558],[121.332629531484343,-3.954369247483558],[121.332673857513896,-3.954369247483558],[121.33271818354342,-3.954391357734279],[121.332762509572959,-3.954391357734279],[121.332806835602454,-3.954391357734279],[121.332851161632007,-3.954391357734279],[121.332895487661503,-3.954391357734279],[121.332939813691056,-3.954391357734279],[121.332984139720566,-3.954391357734279],[121.33302846575009,-3.954391357734279],[121.333072791779614,-3.954413467984407],[121.33311711780911,-3.954413467984407],[121.333161443838662,-3.954413467984407],[121.333205769868158,-3.954413467984407],[121.333250095897696,-3.954413467984407],[121.333294421927221,-3.954413467984407],[121.333338747956745,-3.954413467984407],[121.333383073986269,-3.954413467984407],[121.333427400015765,-3.954391357734279],[121.333471726045317,-3.954369247483558],[121.333501276731511,-3.954354507316084],[121.333516052074813,-3.954347137232248],[121.333560378104352,-3.954325026980347],[121.333604704133876,-3.954325026980347],[121.3336490301634,-3.954325026980347],[121.333693356192924,-3.954325026980347],[121.333774063992379,-3.954392123360671],[121.333783405288642,-3.954399889241679],[121.333826334281483,-3.954435578233952],[121.333870660311035,-3.954457688482903],[121.333914986340531,-3.954457688482903],[121.333937149355293,-3.954501908979036],[121.333981475384832,-3.954501908979036],[121.334025801414327,-3.954501908979036],[121.33407012744388,-3.954501908979036],[121.334114453473376,-3.954479798731263],[121.334158779502928,-3.954457688482903],[121.334203105532424,-3.954457688482903],[121.334247431561963,-3.954457688482903],[121.334291757591487,-3.954457688482903],[121.334336083620983,-3.954435578233952],[121.334380409650535,-3.954435578233952],[121.334424735680031,-3.954435578233952],[121.334469061709569,-3.954457688482903],[121.334469061709569,-3.954501908979036],[121.334469061709569,-3.954546129472809],[121.334469061709569,-3.954590349964222],[121.334491224724331,-3.954634570453278],[121.334535550753827,-3.954656680696921],[121.334535550753827,-3.954700901182438],[121.334557713768618,-3.954745121665594],[121.33457987678338,-3.954789342146392],[121.334624202812876,-3.954811452385905],[121.334668528842428,-3.954833562624828],[121.334668528842428,-3.954877783100906],[121.334712854871938,-3.954899893338059],[121.334735017886686,-3.9549441138106],[121.334735017886686,-3.954988334280779],[121.334779343916225,-3.955010444514983],[121.334801506930987,-3.955054664981621],[121.334845832960482,-3.955054664981621],[121.334890158990035,-3.955054664981621],[121.334934485019559,-3.955054664981621],[121.334978811049069,-3.955054664981621],[121.335023137078593,-3.955076775214058],[121.335067463108089,-3.955120995677158],[121.335089626122908,-3.9551652161379],[121.335111789137642,-3.955209436596281],[121.335111789137642,-3.955253657052302],[121.335111789137642,-3.955297877505964],[121.335111789137642,-3.955342097957265],[121.335117683510731,-3.95545940066044],[121.334769793731525,-3.955555873903092],[121.334735017886686,-3.95578430234049],[121.334690691857176,-3.95578430234049],[121.334646365827638,-3.95578430234049],[121.334602039798142,-3.95578430234049],[121.334557713768618,-3.955806412553456],[121.334513387739094,-3.955806412553456],[121.334469061709569,-3.955828522765832],[121.334469061709569,-3.955872743188814],[121.33443360088603,-3.955890431357254],[121.334424735680031,-3.955894853399422],[121.334424735680031,-3.955939073818863],[121.334424735680031,-3.955983294235945],[121.334424735680031,-3.956027514650668],[121.334424735680031,-3.956071735063027],[121.334424735680031,-3.956115955473031],[121.334424735680031,-3.956160175880672],[121.334277662836158,-3.956643873418646],[121.334136616488138,-3.956491828862744],[121.333050628764852,-3.955629530833206],[121.333094954794348,-3.955607420615519],[121.333141497120621,-3.955359786146499],[121.333158421608942,-3.955269737216547],[121.333161443838662,-3.955253657052302],[121.333161443838662,-3.955209436596281],[121.333150362330741,-3.955187326366013],[121.3331392808239,-3.9551652161379],[121.333021078083235,-3.955032554748597],[121.332961976705818,-3.954966224045984],[121.332696020528658,-3.954789342146392],[121.332696020528658,-3.954767231906287],[121.332696020528658,-3.954745121665594],[121.332696020528658,-3.954700901182438],[121.332673857513896,-3.954656680696921],[121.332640612991895,-3.954656680696921],[121.332629531484343,-3.954656680696921],[121.33260736846961,-3.954612460209046],[121.332563042440114,-3.954590349964222],[121.332540879425324,-3.954546129472809],[121.332518716410547,-3.954501908979036],[121.332474390381051,-3.954457688482903],[121.332430064351499,-3.954435578233952],[121.332430064351499,-3.954391357734279],[121.332363575307241,-3.954280806474775],[121.332407901336765,-3.954280806474775],[121.332452227366289,-3.954302916727858],[121.332496553395814,-3.954302916727858]]]}},
{"type":"Feature","properties":{"fid":3,"sektor":"Sawah","varietas":"Sawah Total"},"geometry":{"type":"Polygon","coordinates":[[[121.334304353559702,-3.948759902427987],[121.334506586952912,-3.948669259636859],[121.334934485019559,-3.948731114307545],[121.334978811049069,-3.948731114307545],[121.334602039798142,-3.947890918632567],[121.33457987678338,-3.947846697784012],[121.334505121493564,-3.947694118015999],[121.334336083620983,-3.947426599605278],[121.33431392060622,-3.947382378731993],[121.334291757591487,-3.947338157856353],[121.334269594576725,-3.947293936978359],[121.333770926348564,-3.946394414734839],[121.33407012744388,-3.946210524731907],[121.334114453473376,-3.946188414263182],[121.334158779502928,-3.946166303793869],[121.334203105532424,-3.946144193323968],[121.334535550753827,-3.945923088592568],[121.334557713768618,-3.945878867639225],[121.334602039798142,-3.945856757161672],[121.334646365827638,-3.945812536204798],[121.334690691857176,-3.945790425725478],[121.334735017886686,-3.945790425725478],[121.334757180901462,-3.945746204765073],[121.334801506930987,-3.945746204765073],[121.334845832960482,-3.945724094283988],[121.33551072340336,-3.945370326506587],[121.335555049432855,-3.945348216015497],[121.335599375462408,-3.94532610552382],[121.33562153847717,-3.945281884538697],[121.33566586450668,-3.945259774045253],[121.335710190536204,-3.945237663551222],[121.335710190536204,-3.945193442561393],[121.3357545165657,-3.945171332065595],[121.336862667303777,-3.944596458968328],[121.336906993333315,-3.944574348456646],[121.336951319362811,-3.944552237944373],[121.337037435287115,-3.944520879373204],[121.337207428574175,-3.944430236119413],[121.33761620980566,-3.944220580189683],[121.337815676938533,-3.944132138099409],[121.337860002968043,-3.944110027575372],[121.337904328997539,-3.944087917050743],[121.337948655027077,-3.944043695999724],[121.337992981056601,-3.944021585473332],[121.338037307086154,-3.944021585473332],[121.33808163311565,-3.943999474946352],[121.338125959145188,-3.943977364418783],[121.338170285174684,-3.943955253890626],[121.338303263263285,-3.943888922302625],[121.338347589292795,-3.943866811772116],[121.338391915322319,-3.943844701241018],[121.338414078337081,-3.943800480177057],[121.338458404366605,-3.943778369644194],[121.338502730396129,-3.943756259110742],[121.338547056425654,-3.943712038042074],[121.338591382455149,-3.94368992750686],[121.338635708484688,-3.94368992750686],[121.338680034514212,-3.943667816971056],[121.338724360543736,-3.943667816971056],[121.33876868657326,-3.943645706434662],[121.338790849587994,-3.943601485360114],[121.338835175617533,-3.943579374821957],[121.338879501647057,-3.943579374821957],[121.33890166466179,-3.943535153743879],[121.338945990691343,-3.943535153743879],[121.338990316720867,-3.943513043203957],[121.339034642750406,-3.943490932663447],[121.339078968779901,-3.943468822122349],[121.339078968779901,-3.94342460103839],[121.339123294809411,-3.943402490495526],[121.33916762083895,-3.943402490495526],[121.339189783853712,-3.943358269408037],[121.339234109883265,-3.943358269408037],[121.339256272898027,-3.943314048318194],[121.339300598927522,-3.943314048318194],[121.339344924957061,-3.943314048318194],[121.339344924957061,-3.943269827225998],[121.339389250986557,-3.943269827225998],[121.339522229075158,-3.943225606131452],[121.339566555104668,-3.943181385034551],[121.339610881134192,-3.94315927448522],[121.339655207163716,-3.943137163935301],[121.339699533193212,-3.943115053384791],[121.339743859222764,-3.943092942833694],[121.339788185252274,-3.943070832282008],[121.339832511281799,-3.943048721729736],[121.339876837311323,-3.943026611176875],[121.339921163340847,-3.942982390069388],[121.339965489370371,-3.942960279514762],[121.340009815399867,-3.942938168959549],[121.340142793488454,-3.942871837290377],[121.340164956503216,-3.942827616174659],[121.34020928253274,-3.942827616174659],[121.340253608562264,-3.942805505615917],[121.340297934591774,-3.942783395056586],[121.34034226062127,-3.942783395056586],[121.340386586650823,-3.942761284496669],[121.340430912680318,-3.942739173936162],[121.340475238709871,-3.942739173936162],[121.340519564739395,-3.942739173936162],[121.340519564739395,-3.942783395056586],[121.340541727754172,-3.942827616174659],[121.340541727754172,-3.942871837290377],[121.340586053783667,-3.942893947847358],[121.340586053783667,-3.942938168959549],[121.340586053783667,-3.942982390069388],[121.340586053783667,-3.943026611176875],[121.340608216798429,-3.943070832282008],[121.340652542827982,-3.943115053384791],[121.341029314078909,-3.943468822122349],[121.341073640108434,-3.943490932663447],[121.341117966137929,-3.943513043203957],[121.34114012915272,-3.94355726428321],[121.341184455182244,-3.943579374821957],[121.34122878121174,-3.943623595897682],[121.341419158807298,-3.94380450500095],[121.34122878121174,-3.943999474946352],[121.34122878121174,-3.944043695999724],[121.341273107241278,-3.944065806525527],[121.341273107241278,-3.944110027575372],[121.341317433270774,-3.94415424862286],[121.341361759300327,-3.94415424862286],[121.341383922315089,-3.944198469667995],[121.341406085329851,-3.944242690710781],[121.341450411359375,-3.94426480123129],[121.341472574374137,-3.944309022270543],[121.341494737388899,-3.944353243307443],[121.341539063418395,-3.944375353825011],[121.341539063418395,-3.944419574858381],[121.341583389447933,-3.944463795889397],[121.341583389447933,-3.944508016918062],[121.341627715477458,-3.944508016918062],[121.341627715477458,-3.944552237944373],[121.34167204150701,-3.944596458968328],[121.341716367536506,-3.944618569479424],[121.341738530551268,-3.944662790499852],[121.341738530551268,-3.944707011517925],[121.341760693566044,-3.944751232533644],[121.34180501959554,-3.944773343040621],[121.34180501959554,-3.94481756405281],[121.341827182610302,-3.944861785062646],[121.341827182610302,-3.944906006070129],[121.341849345625036,-3.944950227075258],[121.341893671654617,-3.944972337576938],[121.341915834669351,-3.945016558578538],[121.341915834669351,-3.945060779577781],[121.341960160698889,-3.945082890076519],[121.341982323713651,-3.945127111072234],[121.341982323713651,-3.945171332065595],[121.342004486728399,-3.945215553056601],[121.342004486728399,-3.945259774045253],[121.342048812757938,-3.945259774045253],[121.3420709757727,-3.945303995031552],[121.3420709757727,-3.945348216015497],[121.342093138787462,-3.94539243699709],[121.342115301802195,-3.945436657976326],[121.342159627831748,-3.94545876846506],[121.342159627831748,-3.945502989440769],[121.34218179084651,-3.945547210414119],[121.342226116876006,-3.945591431385118],[121.342248279890782,-3.945635652353761],[121.342270442905544,-3.945679873320052],[121.342292605920306,-3.945724094283988],[121.342314768935069,-3.945768315245571],[121.342336931949802,-3.945812536204798],[121.342359094964593,-3.945856757161672],[121.342381257979355,-3.945900978116191],[121.342403420994117,-3.945945199068356],[121.342447747023613,-3.945967309543556],[121.342447747023613,-3.94601153049219],[121.342447747023613,-3.94605575143847],[121.342492073053151,-3.94605575143847],[121.342492073053151,-3.946099972382395],[121.342536399082647,-3.946122082853476],[121.342558562097437,-3.946166303793869],[121.342602888126962,-3.946188414263182],[121.343068311436909,-3.946851728068894],[121.343068311436909,-3.946895948970435],[121.343112637466461,-3.946918059420325],[121.343156963495986,-3.946940169869626],[121.343156963495986,-3.946984390766461],[121.343289084965065,-3.94703257076207],[121.343634933376691,-3.946579355764558],[121.343854752282382,-3.946599823544311],[121.344005019894411,-3.946666072534202],[121.344043484086441,-3.946674844439171],[121.344087810115965,-3.946696954894947],[121.34413213614549,-3.946696954894947],[121.344176462174985,-3.946719065350134],[121.344880573842275,-3.946599823543972],[121.345419862890921,-3.94659689957601],[121.345466757590785,-3.946693390529155],[121.345446241159621,-3.946833740987162],[121.345484080045892,-3.946895948970435],[121.345545892396856,-3.947003331092275],[121.345572732104969,-3.946940169869626],[121.345663129146558,-3.94693607984784],[121.345771573140027,-3.946965319520003],[121.346038155414973,-3.947117053442831],[121.346058803176817,-3.947070582331264],[121.346164316251532,-3.947117365798652],[121.346351895051058,-3.947222628590434],[121.346313793107385,-3.947593972223999],[121.34614897048877,-3.948023581164098],[121.346126807474008,-3.948067802003231],[121.346015992400211,-3.948465789449423],[121.346015992400211,-3.948510010265],[121.345993829385449,-3.948554231078219],[121.345959151939539,-3.948737241731135],[121.345461917031159,-3.948576341483946],[121.345461917031159,-3.948620562293633],[121.345439754016397,-3.948664783100964],[121.345439754016397,-3.948709003905939],[121.345395427986858,-3.948731114307545],[121.345395427986858,-3.948775335108986],[121.345395427986858,-3.948819555908071],[121.345373264972125,-3.948863776704801],[121.345351101957363,-3.948907997499175],[121.3453289389426,-3.948952218291194],[121.345306775927838,-3.948996439080856],[121.345262449898314,-3.949018549474802],[121.345240286883552,-3.949062770260929],[121.345195960854028,-3.949084880653112],[121.345151634824504,-3.949106991044701],[121.345103323666706,-3.949210923265704],[121.344907841662135,-3.949084880653112],[121.344885678647373,-3.949173322215941],[121.344863515632596,-3.949217542993823],[121.344819189603101,-3.949261763769347],[121.34469299504272,-3.949444839973182],[121.3447252351489,-3.949479927473618],[121.344508347161934,-3.9496612128689],[121.344361801224821,-3.949819106568007],[121.344203531612735,-3.949813258653762],[121.343939748925877,-3.95001793562785],[121.343889923307259,-3.950108578271675],[121.343743377370146,-3.950196296949817],[121.343664242564074,-3.950187525082421],[121.343482525602042,-3.950149513655962],[121.343397528958505,-3.950234308374133],[121.343315463233708,-3.950345418681378],[121.34329494680253,-3.950409745694561],[121.34324561555502,-3.950477834172863],[121.343142539027909,-3.950582259023475],[121.343080989734318,-3.950658281835],[121.343142539027909,-3.950763544177918],[121.343136677190415,-3.95086880650748],[121.343046148422175,-3.951052703197735],[121.343095644328017,-3.951096874842377],[121.343098575246771,-3.95117582155908],[121.343019440440699,-3.951251844316209],[121.343042887790673,-3.95130447545168],[121.343069266059331,-3.95138049819702],[121.343042887790673,-3.951476988594532],[121.342776174185047,-3.951860026123531],[121.342585664466796,-3.951868797972128],[121.342313089023776,-3.952093942082979],[121.342251539730157,-3.952213823987198],[121.342134302980483,-3.952295694545973],[121.342019997149492,-3.952424348264862],[121.341849345625036,-3.95248987401689],[121.341871508639855,-3.952666756407122],[121.341908622237298,-3.952766450102074],[121.342137233899223,-3.953044224994273],[121.342093138787462,-3.953108962217629],[121.34205516817444,-3.953164106761107],[121.342093138787462,-3.953197403351428],[121.342137464816986,-3.953197403351428],[121.34218179084651,-3.953219513633406],[121.342339467292476,-3.953348315295875],[121.342471358635891,-3.953453577297366],[121.342336931949802,-3.953838601289326],[121.342336931949802,-3.953882821818485],[121.342274987080131,-3.954061757488728],[121.34218179084651,-3.954192365456557],[121.342125510224236,-3.954588066909554],[121.341932069587244,-3.954658241473746],[121.341735698031471,-3.954576371148277],[121.341580359338124,-3.954541283863457],[121.341494737388899,-3.954634570453278],[121.341372264107392,-3.954778123007161],[121.341290198382609,-3.954950635427256],[121.341219856332785,-3.955009114205579],[121.341076241314397,-3.955014962083184],[121.340652542827982,-3.954767231906287],[121.340563890768934,-3.954745121665594],[121.340519564739395,-3.95472301142431],[121.340475238709871,-3.95472301142431],[121.340430912680318,-3.95472301142431],[121.340386586650823,-3.95472301142431],[121.34034226062127,-3.95472301142431],[121.340297934591774,-3.954745121665594],[121.340253608562264,-3.954745121665594],[121.34020928253274,-3.954767231906287],[121.340164956503216,-3.954789342146392],[121.339833531767553,-3.95491847209742],[121.339467166924734,-3.954994494511385],[121.339056805765154,-3.955054664981621],[121.338945990691343,-3.9551652161379],[121.33890166466179,-3.955231546824588],[121.338680034514212,-3.955585310397242],[121.338414078337081,-3.95578430234049],[121.338236774218998,-3.955939073818863],[121.338192448189474,-3.956005404443602],[121.33790498723495,-3.956316113824211],[121.337793513923728,-3.956226506487708],[121.337749187894232,-3.956226506487708],[121.337660535835184,-3.956182286083606],[121.33761620980566,-3.956182286083606],[121.33757188377615,-3.956160175880672],[121.337527557746625,-3.956160175880672],[121.337483231717073,-3.956160175880672],[121.337438905687577,-3.956160175880672],[121.337394579658053,-3.956138065677146],[121.337350253628543,-3.956138065677146],[121.337305927599019,-3.956138065677146],[121.337172949510418,-3.956071735063027],[121.337128623480922,-3.956049624857142],[121.337084297451412,-3.956049624857142],[121.337017808407126,-3.956005404443602],[121.336973482377601,-3.955983294235945],[121.336864511081316,-3.955915534741861],[121.336843994650124,-3.955816120925002],[121.336841063731399,-3.955710859223563],[121.336843994650124,-3.955623141128816],[121.336862667303777,-3.955496869518236],[121.336855718325111,-3.955406769788735],[121.336788307194027,-3.955348291038475],[121.336694517794271,-3.955295660159712],[121.336506938994731,-3.955213789897213],[121.336272465495327,-3.955143615380062],[121.336086961787146,-3.955076775214058],[121.335923686164946,-3.955032505715752],[121.335998309728097,-3.9549441138106],[121.335998309728097,-3.954899893338059],[121.335998309728097,-3.954855672863162],[121.335998309728097,-3.954811452385905],[121.335998309728097,-3.954767231906287],[121.335998309728097,-3.95472301142431],[121.335998309728097,-3.954678790939974],[121.33602047274286,-3.954634570453278],[121.336042635757622,-3.954590349964222],[121.336064798772355,-3.954546129472809],[121.336064798772355,-3.954501908979036],[121.336064798772355,-3.954457688482903],[121.336064798772355,-3.954413467984407],[121.336064798772355,-3.954369247483558],[121.336064798772355,-3.954325026980347],[121.336064798772355,-3.954280806474775],[121.336064798772355,-3.954236585966846],[121.336064798772355,-3.954192365456557],[121.336042635757622,-3.954148144943912],[121.335998309728097,-3.954081814170518],[121.335976146713335,-3.95403759365197],[121.335931820683811,-3.954015483391815],[121.335909657669049,-3.953971262869731],[121.335865331639539,-3.953949152607805],[121.335821005610015,-3.953927042345289],[121.335776679580491,-3.953927042345289],[121.335732353550938,-3.953927042345289],[121.335688027521442,-3.953904932082183],[121.335643701491904,-3.953882821818485],[121.335599375462408,-3.953860711554201],[121.335555049432855,-3.953838601289326],[121.33551072340336,-3.953816491023862],[121.335466397373835,-3.953794380757807],[121.335444234359045,-3.953750160223929],[121.335399908329549,-3.953728049956104],[121.335377745314801,-3.953683829418687],[121.335377745314801,-3.953639608878911],[121.335355582300011,-3.953595388336778],[121.335355582300011,-3.953551167792284],[121.335333419285249,-3.953506947245432],[121.335289093255753,-3.953484836971123],[121.335266930240934,-3.953440616420733],[121.335266930240934,-3.953396395867983],[121.335222604211438,-3.953396395867983],[121.335200441196704,-3.953352175312876],[121.335178278181928,-3.953307954755412],[121.335178278181928,-3.953263734195587],[121.335133952152404,-3.953219513633406],[121.335111789137642,-3.953175293068863],[121.335089626122908,-3.953131072501963],[121.335045300093327,-3.953131072501963],[121.335000974063831,-3.953108962217629],[121.334956648034293,-3.953108962217629],[121.334912322004797,-3.953108962217629],[121.334867995975273,-3.953108962217629],[121.334823669945749,-3.953108962217629],[121.334779343916225,-3.953108962217629],[121.334735017886686,-3.953108962217629],[121.334690691857176,-3.953108962217629],[121.334646365827638,-3.953108962217629],[121.334602039798142,-3.953131072501963],[121.334602039798142,-3.953175293068863],[121.334557713768618,-3.953197403351428],[121.334557713768618,-3.95324162391479],[121.334557713768618,-3.953285844475793],[121.334535550753827,-3.95333006503444],[121.33430581901905,-3.953684568864907],[121.333783405288642,-3.954399889241679],[121.333774063992379,-3.954392123360671],[121.3336490301634,-3.954280806474775],[121.333604704133876,-3.954280806474775],[121.333560378104352,-3.954302916727858],[121.333516052074813,-3.954325026980347],[121.333501276731511,-3.954354507316084],[121.333471726045317,-3.954369247483558],[121.333449563030555,-3.954369247483558],[121.333405237001031,-3.954369247483558],[121.333360910971507,-3.954369247483558],[121.333316584941954,-3.954369247483558],[121.333272258912459,-3.954369247483558],[121.333227932882934,-3.954369247483558],[121.333183606853424,-3.954369247483558],[121.3331392808239,-3.954369247483558],[121.333094954794348,-3.954369247483558],[121.333050628764852,-3.954369247483558],[121.332651694499162,-3.954347137232248],[121.33260736846961,-3.954347137232248],[121.332585205454848,-3.954336082106291],[121.332585205454848,-3.954325026980347],[121.332563042440114,-3.954325026980347],[121.332540879425324,-3.954325026980347],[121.332511328739102,-3.954310286812078],[121.332496553395814,-3.954280806474775],[121.332274692330444,-3.95421672640846],[121.332274923248193,-3.95405970391154],[121.332297086262955,-3.954015483391815],[121.332297086262955,-3.953971262869731],[121.332341412292479,-3.953927042345289],[121.332363575307241,-3.953838601289326],[121.332385738322003,-3.953750160223929],[121.332385738322003,-3.953705939687691],[121.332385738322003,-3.953661719149096],[121.332385738322003,-3.95361749860814],[121.332407901336765,-3.953042631361087],[121.332407901336765,-3.952998410787111],[121.332385738322003,-3.952954190210777],[121.332363575307241,-3.952909969632086],[121.332363575307241,-3.952865749051036],[121.332363575307241,-3.952821528467627],[121.332363575307241,-3.952777307881859],[121.332363575307241,-3.952733087293735],[121.332363575307241,-3.952688866703249],[121.332363575307241,-3.952644646110408],[121.332363575307241,-3.952600425515207],[121.332363575307241,-3.952556204917648],[121.332341412292479,-3.952511984317733],[121.332341412292479,-3.952467763715458],[121.332297086262955,-3.952423543110826],[121.332274923248193,-3.952379322503834],[121.332252760233445,-3.952335101894486],[121.332208434203892,-3.952335101894486],[121.332208434203892,-3.952290881282779],[121.332164108174396,-3.952246660668714],[121.332164108174396,-3.952202440052291],[121.332164108174396,-3.952158219433509],[121.332119782144872,-3.952136109123235],[121.332097619130082,-3.952091888500916],[121.332075456115348,-3.95204766787624],[121.332075456115348,-3.952003447249207],[121.332031130085824,-3.951981336934807],[121.332008967071047,-3.951937116304238],[121.332008967071047,-3.95189289567131],[121.331986804056285,-3.951848675036025],[121.332031130085824,-3.951826564717496],[121.332075456115348,-3.951826564717496],[121.332119782144872,-3.951826564717496],[121.332164108174396,-3.951804454398382],[121.332208434203892,-3.951782344078675],[121.332208434203892,-3.951760233758381],[121.332208434203892,-3.951738123437495],[121.332219515711145,-3.951738123437495],[121.332252760233445,-3.951738123437495],[121.332252760233445,-3.951693902793958],[121.332274923248193,-3.95164968214806],[121.332319249277688,-3.95162757182423],[121.332319249277688,-3.951583351174798],[121.332319249277688,-3.951539130523009],[121.332319249277688,-3.951494909868863],[121.332319249277688,-3.951450689212358],[121.332319249277688,-3.951406468553496],[121.332319249277688,-3.951362247892277],[121.332319249277688,-3.951318027228699],[121.332297086262955,-3.951273806562766],[121.332252760233445,-3.951251696228915],[121.332252760233445,-3.951207475559445],[121.332252760233445,-3.951163254887617],[121.332230597218683,-3.951119034213431],[121.332186271189158,-3.951096923875456],[121.332186271189158,-3.951052703197735],[121.332164108174396,-3.951008482517657],[121.332141945159634,-3.950964261835221],[121.332097619130082,-3.950964261835221],[121.332053293100586,-3.950942151493119],[121.332008967071047,-3.950942151493119],[121.331964641041552,-3.950942151493119],[121.331920315012027,-3.950942151493119],[121.331875988982503,-3.950942151493119],[121.331831662952979,-3.950942151493119],[121.331787336923441,-3.950942151493119],[121.331743010893945,-3.950964261835221],[121.331720847879183,-3.951008482517657],[121.33167652184963,-3.951008482517657],[121.33167652184963,-3.951030592857991],[121.33167652184963,-3.951052703197735],[121.331632195820134,-3.951074813536889],[121.331610032805344,-3.951119034213431],[121.33156570677582,-3.95114114455082],[121.331543543761086,-3.951096923875456],[121.331521380746324,-3.951052703197735],[121.331477054716785,-3.95103059285799],[121.331454891702052,-3.950986372176733],[121.331410565672471,-3.950964261835221],[121.331366239642975,-3.950920041150429],[121.331344076628241,-3.950875820463279],[121.331299750598703,-3.950831599773772],[121.331277587583941,-3.950787379081907],[121.331233261554416,-3.950765268735091],[121.331188935524892,-3.950721048039693],[121.331188935524892,-3.950676827341935],[121.33110028346583,-3.950566275587231],[121.33105595743632,-3.950499944527338],[121.33101163140681,-3.950477834172863],[121.330856490303475,-3.950300951315842],[121.330834327288713,-3.950256730595695],[121.330577690378504,-3.950036210354482],[121.330828283930998,-3.949900246373918],[121.331137495858314,-3.94980667975106],[121.331621097450849,-3.94974381466894],[121.331596184641569,-3.94947919648404],[121.331758850631758,-3.949448494921214],[121.33178229798169,-3.949439723045912],[121.331805745331636,-3.949428027212032],[121.331845312734686,-3.949416331377986],[121.332029960615444,-3.949369548040158],[121.332076855315321,-3.949359314184655],[121.332090044449686,-3.949300835007942],[121.332219004874347,-3.949271595418038],[121.332450547455011,-3.949199958418423],[121.332812515919741,-3.949116625574356],[121.333108538712736,-3.949062532320219],[121.333300513890364,-3.948948497881029],[121.333551107442858,-3.948852007189476],[121.333778253645377,-3.948802299859149],[121.334107982003928,-3.948778908173259],[121.334304353559702,-3.948759902427987]]]}},
{"type":"Feature","properties":{"fid":6,"sektor":"Laut","varietas":"Hewan laut"},"geometry":{"type":"Polygon","coordinates":[[[121.313147329598607,-3.972139860817043],[121.308358256333293,-3.965175917019963],[121.33065702317063,-3.956469718668071],[121.330679186185364,-3.956513939056828],[121.330701349200154,-3.956558159443226],[121.330701349200154,-3.956602379827264],[121.330701349200154,-3.95664660020894],[121.330745675229679,-3.956690820588256],[121.330745675229679,-3.956735040965212],[121.330767838244441,-3.956779261339806],[121.330790001259174,-3.95682348171204],[121.330790001259174,-3.956867702081914],[121.330812164273951,-3.956911922449427],[121.330834327288713,-3.956956142814578],[121.330878653318237,-3.956978252996269],[121.330900816332971,-3.957022473357879],[121.330945142362523,-3.9570445835378],[121.330967305377285,-3.95708880389587],[121.330989468392019,-3.957133024251579],[121.33101163140681,-3.957177244604926],[121.331033794421572,-3.957221464955914],[121.33105595743632,-3.95726568530454],[121.331070732783019,-3.957273055364109],[121.33110028346583,-3.957287795477967],[121.331122446480606,-3.957332015823053],[121.331144609495368,-3.957376236165778],[121.331188935524892,-3.957398346336252],[121.331233261554445,-3.957420456506139],[121.331277587583941,-3.95746467684414],[121.331299750598703,-3.95750889717978],[121.331321913613436,-3.95755311751306],[121.331321913613436,-3.957597337843979],[121.331366239642975,-3.957619448008553],[121.331366239642975,-3.957663668335928],[121.331410565672471,-3.957685778498732],[121.331410565672471,-3.957729998822566],[121.331410565672471,-3.95777421914404],[121.331454891702052,-3.957796329303893],[121.331454891702052,-3.957833179564859],[121.331454891702052,-3.957840549621824],[121.331463756913294,-3.957844971656105],[121.331499217731547,-3.957862659779905],[121.331521380746324,-3.957906880094294],[121.331543543761086,-3.957951100406324],[121.331587869790582,-3.957951100406324],[121.331587869790582,-3.957995320715988],[121.331587869790582,-3.958039541023296],[121.331632195820134,-3.958039541023296],[121.331654358834896,-3.958083761328241],[121.33167652184963,-3.958127981630823],[121.331698684864392,-3.958172201931045],[121.331743010893945,-3.95819431208027],[121.331787336923441,-3.95823853237695],[121.331809499938217,-3.958282752671267],[121.331853825967741,-3.958304862817541],[121.331875988982503,-3.958349083108316],[121.331875988982503,-3.95839330339673],[121.331920315012027,-3.95839330339673],[121.331942478026789,-3.958437523682782],[121.331964641041552,-3.958481743966473],[121.332008967071047,-3.958481743966473],[121.332031130085824,-3.958525964247802],[121.332053293100586,-3.958570184526769],[121.332097619130082,-3.958592294665368],[121.332119782144872,-3.958636514940792],[121.332164108174396,-3.958658625077618],[121.332186271189158,-3.9587028453495],[121.332208434203892,-3.958747065619022],[121.332230597218683,-3.95879128588618],[121.332252760233445,-3.958835506150976],[121.332274923248193,-3.958879726413411],[121.332297086262955,-3.958923946673484],[121.332319249277688,-3.958968166931195],[121.332319249277688,-3.959012387186543],[121.332341412292479,-3.959056607439529],[121.332385738322003,-3.959100827690155],[121.332385738322003,-3.959145047938418],[121.332407901336765,-3.959189268184319],[121.332430064351499,-3.959233488427857],[121.332452227366289,-3.959277708669034],[121.332474390381051,-3.959321928907849],[121.332496553395814,-3.9593661491443],[121.332518716410547,-3.95941036937839],[121.33254087943007,-3.959432479498977],[121.332563042440114,-3.959454589610118],[121.332585205454848,-3.959498809839486],[121.332629531484343,-3.959520919953282],[121.332651694499162,-3.959565140179103],[121.332673857513896,-3.959609360402564],[121.33271818354342,-3.959631470513408],[121.332740346558197,-3.959675690733325],[121.332762509572959,-3.959719910950879],[121.332806835602454,-3.959719910950879],[121.332828998617245,-3.959764131166072],[121.332851161632007,-3.959808351378899],[121.332895487661503,-3.959852571589367],[121.332917650676265,-3.959896791797472],[121.332917650676265,-3.959941012003213],[121.332939813691056,-3.959985232206592],[121.332961976705818,-3.960029452407609],[121.332984139720566,-3.960073672606263],[121.333006302735313,-3.960117892802555],[121.33302846575009,-3.960162112996484],[121.333034798041538,-3.960165271582391],[121.333072791779614,-3.960184223092563],[121.333072791779614,-3.960228443282949],[121.333094954794348,-3.960272663470969],[121.33311711780911,-3.960316883656628],[121.333161443838662,-3.960338993748573],[121.333183606853424,-3.960383213930689],[121.333205769868158,-3.960427434110441],[121.333250095897696,-3.96047165428783],[121.333272258912459,-3.960515874462857],[121.333316584941954,-3.960515874462857],[121.333338747956745,-3.960560094635522],[121.333383073986269,-3.960582204720969],[121.33362686714861,-3.960736975302549],[121.313147329598607,-3.972139860817043]]]}}
]
}
